[{"OBJECT_NAME":"TEVEL2-6","OBJECT_ID":"2025-052F","EPOCH":"2026-03-09T15:35:24.554400","MEAN_MOTION":15.30760889,"ECCENTRICITY":0.0004769,"INCLINATION":97.4016,"RA_OF_ASC_NODE":325.0381,"ARG_OF_PERICENTER":95.6604,"MEAN_ANOMALY":264.5181,"EPHEMERIS_TYPE":0,"CLASSIFICATION_TYPE":"U","NORAD_CAT_ID":63215,"ELEMENT_SET_NO":999,"REV_AT_EPOCH":5486,"BSTAR":0.00070909,"MEAN_MOTION_DOT":0.00021046,"MEAN_MOTION_DDOT":0},{"OBJECT_NAME":"STARLINK-35555","OBJECT_ID":"2025-259D","EPOCH":"2026-03-09T21:43:03.284832","MEAN_MOTION":15.27594706,"ECCENTRICITY":0.00024707,"INCLINATION":43.0001,"RA_OF_ASC_NODE":273.1798,"ARG_OF_PERICENTER":269.0113,"MEAN_ANOMALY":91.0456,"EPHEMERIS_TYPE":0,"CLASSIFICATION_TYPE":"U","NORAD_CAT_ID":66425,"ELEMENT_SET_NO":999,"REV_AT_EPOCH":1952,"BSTAR":0.00097245524,"MEAN_MOTION_DOT":0.00026607,"MEAN_MOTION_DDOT":0}]
